{
  "norad_id": 38356,
  "name": "INTELSAT 19 (IS-19)",
  "history": [
    {
      "epoch": "2026-04-13T04:25:38.670240Z",
      "apogee_km": 35798.10142101611,
      "perigee_km": 35774.29628028155,
      "latitude_deg": -0.008681267144218185,
      "longitude_deg": 166.02338198607507,
      "height_km": 35778.296594825835,
      "semi_major_axis_km": 42164.33585064884,
      "eccentricity": 0.00028229,
      "inclination_deg": 0.0168,
      "raan_deg": 257.7215,
      "arg_perigee_deg": 124.328,
      "mean_anomaly_deg": 51.7399,
      "mean_motion_rev_day": 1.00273198
    },
    {
      "epoch": "2026-04-14T18:28:38.589312Z",
      "apogee_km": 35797.961205486274,
      "perigee_km": 35774.509381616605,
      "latitude_deg": 0.023464923335143804,
      "longitude_deg": 165.97077762848795,
      "height_km": 35787.0609690597,
      "semi_major_axis_km": 42164.37229355144,
      "eccentricity": 0.0002781,
      "inclination_deg": 0.012,
      "raan_deg": 254.8005,
      "arg_perigee_deg": 127.8435,
      "mean_anomaly_deg": 263.466,
      "mean_motion_rev_day": 1.00273068
    },
    {
      "epoch": "2026-04-15T20:14:02.681376Z",
      "apogee_km": 35797.84873274731,
      "perigee_km": 35774.64988739951,
      "latitude_deg": 0.0391002079404772,
      "longitude_deg": 165.9762286868994,
      "height_km": 35781.670983676464,
      "semi_major_axis_km": 42164.38631007341,
      "eccentricity": 0.0002751,
      "inclination_deg": 0.0177,
      "raan_deg": 249.221,
      "arg_perigee_deg": 133.8996,
      "mean_anomaly_deg": 290.4031,
      "mean_motion_rev_day": 1.00273018
    },
    {
      "epoch": "2026-04-16T16:29:40.960032Z",
      "apogee_km": 35798.880647687976,
      "perigee_km": 35774.9983483595,
      "latitude_deg": 0.01284111939035556,
      "longitude_deg": 165.9762288445639,
      "height_km": 35793.31159156377,
      "semi_major_axis_km": 42165.07649802374,
      "eccentricity": 0.0002832,
      "inclination_deg": 0.0192,
      "raan_deg": 250.9462,
      "arg_perigee_deg": 132.2717,
      "mean_anomaly_deg": 235.0456,
      "mean_motion_rev_day": 1.00270556
    },
    {
      "epoch": "2026-04-17T20:10:38.539776Z",
      "apogee_km": 35798.87947852725,
      "perigee_km": 35775.26864694056,
      "latitude_deg": 0.04183090483586876,
      "longitude_deg": 165.96219237242988,
      "height_km": 35782.187435621214,
      "semi_major_axis_km": 42165.211062733906,
      "eccentricity": 0.00027998,
      "inclination_deg": 0.0186,
      "raan_deg": 247.2967,
      "arg_perigee_deg": 135.6517,
      "mean_anomaly_deg": 291.6815,
      "mean_motion_rev_day": 1.00270076
    },
    {
      "epoch": "2026-04-18T20:32:35.392416Z",
      "apogee_km": 35798.814152379375,
      "perigee_km": 35775.19324056122,
      "latitude_deg": 0.03798222336544345,
      "longitude_deg": 165.96329862816833,
      "height_km": 35781.11402849522,
      "semi_major_axis_km": 42165.1406964703,
      "eccentricity": 0.0002801,
      "inclination_deg": 0.0144,
      "raan_deg": 248.3104,
      "arg_perigee_deg": 135.8033,
      "mean_anomaly_deg": 297.0025,
      "mean_motion_rev_day": 1.00270327
    },
    {
      "epoch": "2026-04-19T18:44:38.607360Z",
      "apogee_km": 35798.76391619679,
      "perigee_km": 35775.17675515321,
      "latitude_deg": 0.026879538375785227,
      "longitude_deg": 165.96211158276574,
      "height_km": 35786.613740711364,
      "semi_major_axis_km": 42165.107335675,
      "eccentricity": 0.0002797,
      "inclination_deg": 0.011,
      "raan_deg": 244.8637,
      "arg_perigee_deg": 140.8519,
      "mean_anomaly_deg": 269.3258,
      "mean_motion_rev_day": 1.00270446
    },
    {
      "epoch": "2026-04-20T14:21:46.023840Z",
      "apogee_km": 35798.500320511725,
      "perigee_km": 35775.03049253421,
      "latitude_deg": -0.004844691698458182,
      "longitude_deg": 165.98747247091978,
      "height_km": 35797.06218311338,
      "semi_major_axis_km": 42164.902406522975,
      "eccentricity": 0.00027831,
      "inclination_deg": 0.0097,
      "raan_deg": 234.2677,
      "arg_perigee_deg": 152.2149,
      "mean_anomaly_deg": 203.6487,
      "mean_motion_rev_day": 1.00271177
    },
    {
      "epoch": "2026-04-21T18:52:38.905824Z",
      "apogee_km": 35798.49406127529,
      "perigee_km": 35774.982926699835,
      "latitude_deg": 0.024018616508389084,
      "longitude_deg": 165.97147852026313,
      "height_km": 35785.71301133182,
      "semi_major_axis_km": 42164.875493987565,
      "eccentricity": 0.0002788,
      "inclination_deg": 0.0084,
      "raan_deg": 229.4142,
      "arg_perigee_deg": 157.0411,
      "mean_anomaly_deg": 272.5662,
      "mean_motion_rev_day": 1.00271273
    },
    {
      "epoch": "2026-04-22T13:13:38.706816Z",
      "apogee_km": 35798.516627665136,
      "perigee_km": 35774.89588247365,
      "latitude_deg": -0.007022882400679146,
      "longitude_deg": 166.00140836559567,
      "height_km": 35797.95595536119,
      "semi_major_axis_km": 42164.8432550694,
      "eccentricity": 0.0002801,
      "inclination_deg": 0.0067,
      "raan_deg": 221.217,
      "arg_perigee_deg": 166.3077,
      "mean_anomaly_deg": 187.4989,
      "mean_motion_rev_day": 1.00271388
    },
    {
      "epoch": "2026-04-23T12:46:25.173984Z",
      "apogee_km": 35798.63612798101,
      "perigee_km": 35774.63341000379,
      "latitude_deg": -0.0013371510340482494,
      "longitude_deg": 166.00805388674334,
      "height_km": 35798.171328429344,
      "semi_major_axis_km": 42164.7717689924,
      "eccentricity": 0.00028463,
      "inclination_deg": 0.0069,
      "raan_deg": 178.7741,
      "arg_perigee_deg": 211.7348,
      "mean_anomaly_deg": 178.6742,
      "mean_motion_rev_day": 1.00271643
    },
    {
      "epoch": "2026-04-24T19:34:29.244000Z",
      "apogee_km": 35798.65269290216,
      "perigee_km": 35774.51760594383,
      "latitude_deg": 0.007951872454302887,
      "longitude_deg": 165.97805794268444,
      "height_km": 35783.91092557586,
      "semi_major_axis_km": 42164.722149422996,
      "eccentricity": 0.0002862,
      "inclination_deg": 0.0151,
      "raan_deg": 125.176,
      "arg_perigee_deg": 267.0142,
      "mean_anomaly_deg": 280.2761,
      "mean_motion_rev_day": 1.0027182
    },
    {
      "epoch": "2026-04-25T21:02:38.626944Z",
      "apogee_km": 35798.73353023206,
      "perigee_km": 35774.30332887618,
      "latitude_deg": 0.0021622427158822974,
      "longitude_deg": 165.98325719146868,
      "height_km": 35779.67084558583,
      "semi_major_axis_km": 42164.65542955412,
      "eccentricity": 0.0002897,
      "inclination_deg": 0.037,
      "raan_deg": 80.7389,
      "arg_perigee_deg": 313.7431,
      "mean_anomaly_deg": 301.0709,
      "mean_motion_rev_day": 1.00272058
    },
    {
      "epoch": "2026-04-26T17:46:47.732736Z",
      "apogee_km": 35799.8675032629,
      "perigee_km": 35774.90635640692,
      "latitude_deg": 0.016417664275212122,
      "longitude_deg": 165.96901575202983,
      "height_km": 35790.03757337743,
      "semi_major_axis_km": 42165.52392983492,
      "eccentricity": 0.00029599,
      "inclination_deg": 0.0405,
      "raan_deg": 81.6844,
      "arg_perigee_deg": 310.3748,
      "mean_anomaly_deg": 255.3746,
      "mean_motion_rev_day": 1.0026896
    },
    {
      "epoch": "2026-04-27T19:14:38.632128Z",
      "apogee_km": 35800.7528170847,
      "perigee_km": 35773.092537936245,
      "latitude_deg": 0.03715369992888721,
      "longitude_deg": 165.9677587090254,
      "height_km": 35786.70035774357,
      "semi_major_axis_km": 42165.05967751047,
      "eccentricity": 0.000328,
      "inclination_deg": 0.0209,
      "raan_deg": 256.372,
      "arg_perigee_deg": 145.3709,
      "mean_anomaly_deg": 268.7047,
      "mean_motion_rev_day": 1.00270616
    },
    {
      "epoch": "2026-04-28T18:46:48.380160Z",
      "apogee_km": 35800.80023990816,
      "perigee_km": 35772.87859252534,
      "latitude_deg": 0.03232143866839567,
      "longitude_deg": 165.96595251370502,
      "height_km": 35788.35774880507,
      "semi_major_axis_km": 42164.976416216756,
      "eccentricity": 0.0003311,
      "inclination_deg": 0.0192,
      "raan_deg": 261.2271,
      "arg_perigee_deg": 141.6446,
      "mean_anomaly_deg": 261.5839,
      "mean_motion_rev_day": 1.00270913
    },
    {
      "epoch": "2026-04-29T19:21:46.158336Z",
      "apogee_km": 35800.84933522377,
      "perigee_km": 35772.67474968361,
      "latitude_deg": 0.032717602110820275,
      "longitude_deg": 165.9640328358497,
      "height_km": 35786.46802743687,
      "semi_major_axis_km": 42164.8990424537,
      "eccentricity": 0.0003341,
      "inclination_deg": 0.017,
      "raan_deg": 268.1503,
      "arg_perigee_deg": 137.0336,
      "mean_anomaly_deg": 269.0236,
      "mean_motion_rev_day": 1.00271189
    },
    {
      "epoch": "2026-04-30T12:46:38.574624Z",
      "apogee_km": 35800.93758375503,
      "perigee_km": 35772.48221517646,
      "latitude_deg": -0.029027360860981545,
      "longitude_deg": 166.00997354647464,
      "height_km": 35800.225820213185,
      "semi_major_axis_km": 42164.846899465745,
      "eccentricity": 0.00033743,
      "inclination_deg": 0.0151,
      "raan_deg": 272.3719,
      "arg_perigee_deg": 135.1862,
      "mean_anomaly_deg": 168.5846,
      "mean_motion_rev_day": 1.00271375
    },
    {
      "epoch": "2026-04-30T22:56:38.853600Z",
      "apogee_km": 35800.87075286466,
      "perigee_km": 35772.48961441835,
      "latitude_deg": 0.0367092682460571,
      "longitude_deg": 165.9784086828476,
      "height_km": 35775.067566692305,
      "semi_major_axis_km": 42164.817183641506,
      "eccentricity": 0.00033655,
      "inclination_deg": 0.0139,
      "raan_deg": 277.4588,
      "arg_perigee_deg": 130.606,
      "mean_anomaly_deg": 320.9979,
      "mean_motion_rev_day": 1.00271481
    }
  ]
}